{"type": "FeatureCollection", "features": [ {"type": "Feature", "properties": {"norad_id": 38779, "name": "GSAT-10 (GAGAN/PRN 128)", "group": "gnss", "lat": -0.03091661989385734, "lon": 115.49095445296663, "alt_km": 35775.67426344206, "timestamp": "2025-12-13T20:38:51.245847+00:00", "meta": {"OBJECT_NAME": "GSAT-10 (GAGAN/PRN 128)", "OBJECT_ID": "2012-051B", "EPOCH": "2025-12-13T03:34:21.041760", "MEAN_MOTION": 1.00273084, "ECCENTRICITY": 0.00024813, "INCLINATION": 0.0884, "RA_OF_ASC_NODE": 266.2122, "ARG_OF_PERICENTER": 224.6822, "MEAN_ANOMALY": 87.7821, "EPHEMERIS_TYPE": 0, "CLASSIFICATION_TYPE": "U", "NORAD_CAT_ID": 38779, "ELEMENT_SET_NO": 999, "REV_AT_EPOCH": 4823, "BSTAR": 0, "MEAN_MOTION_DOT": -1.52e-06, "MEAN_MOTION_DDOT": 0}, "tle": {"line1": "1 38779U 12051B   25347.14885465 -.00000152  00000+0  00000+0 0  9992", "line2": "2 38779   0.0884 266.2122 0002481 224.6822  87.7821  1.00273084 48233"}}, "geometry": {"type": "Point", "coordinates": [115.49095445296663, -0.03091661989385734]}}, {"type": "Feature", "properties": {"norad_id": 38833, "name": "GPS BIIF-3  (PRN 24)", "group": "gnss", "lat": 7.084379706142334, "lon": 156.4535312356643, "alt_km": 19909.332167441484, "timestamp": "2025-12-13T20:38:51.245861+00:00", "meta": {"OBJECT_NAME": "GPS BIIF-3  (PRN 24)", "OBJECT_ID": "2012-053A", "EPOCH": "2025-12-12T20:25:41.380896", "MEAN_MOTION": 2.00565025, "ECCENTRICITY": 0.01758679, "INCLINATION": 53.5578, "RA_OF_ASC_NODE": 151.234, "ARG_OF_PERICENTER": 63.9869, "MEAN_ANOMALY": 297.8174, "EPHEMERIS_TYPE": 0, "CLASSIFICATION_TYPE": "U", "NORAD_CAT_ID": 38833, "ELEMENT_SET_NO": 999, "REV_AT_EPOCH": 9570, "BSTAR": 0, "MEAN_MOTION_DOT": 9.1e-07, "MEAN_MOTION_DDOT": 0}, "tle": {"line1": "1 38833U 12053A   25346.85117339  .00000091  00000+0  00000+0 0  9991", "line2": "2 38833  53.5578 151.2340 0175867  63.9869 297.8174  2.00565025 95705"}}, "geometry": {"type": "Point", "coordinates": [156.4535312356643, 7.084379706142334]}}, {"type": "Feature", "properties": {"norad_id": 38857, "name": "GSAT0103 (GALILEO-FM3)", "group": "gnss", "lat": -19.783208467114587, "lon": -59.17289236828333, "alt_km": 23221.687297241493, "timestamp": "2025-12-13T20:38:51.245873+00:00", "meta": {"OBJECT_NAME": "GSAT0103 (GALILEO-FM3)", "OBJECT_ID": "2012-055A", "EPOCH": "2025-12-10T14:16:18.944544", "MEAN_MOTION": 1.70473311, "ECCENTRICITY": 0.00025926, "INCLINATION": 55.6913, "RA_OF_ASC_NODE": 106.7254, "ARG_OF_PERICENTER": 268.6178, "MEAN_ANOMALY": 91.322, "EPHEMERIS_TYPE": 0, "CLASSIFICATION_TYPE": "U", "NORAD_CAT_ID": 38857, "ELEMENT_SET_NO": 999, "REV_AT_EPOCH": 8179, "BSTAR": 0, "MEAN_MOTION_DOT": 1.1e-07, "MEAN_MOTION_DDOT": 0}, "tle": {"line1": "1 38857U 12055A   25344.59466371  .00000011  00000+0  00000+0 0  9993", "line2": "2 38857  55.6913 106.7254 0002592 268.6178  91.3220  1.70473311 81792"}}, "geometry": {"type": "Point", "coordinates": [-59.17289236828333, -19.783208467114587]}}, {"type": "Feature", "properties": {"norad_id": 38953, "name": "BEIDOU-2 G6 (C02)", "group": "gnss", "lat": 2.6104557246491082, "lon": 116.51138380967801, "alt_km": 35798.24271362855, "timestamp": "2025-12-13T20:38:51.245884+00:00", "meta": {"OBJECT_NAME": "BEIDOU-2 G6 (C02)", "OBJECT_ID": "2012-059A", "EPOCH": "2025-12-12T20:43:44.499936", "MEAN_MOTION": 1.00269643, "ECCENTRICITY": 0.00078194, "INCLINATION": 3.9499, "RA_OF_ASC_NODE": 75.5054, "ARG_OF_PERICENTER": 289.7326, "MEAN_ANOMALY": 111.5098, "EPHEMERIS_TYPE": 0, "CLASSIFICATION_TYPE": "U", "NORAD_CAT_ID": 38953, "ELEMENT_SET_NO": 999, "REV_AT_EPOCH": 4804, "BSTAR": 0, "MEAN_MOTION_DOT": -1.63e-06, "MEAN_MOTION_DDOT": 0}, "tle": {"line1": "1 38953U 12059A   25346.86370949 -.00000163  00000+0  00000+0 0  9990", "line2": "2 38953   3.9499  75.5054 0007819 289.7326 111.5098  1.00269643 48044"}}, "geometry": {"type": "Point", "coordinates": [116.51138380967801, 2.6104557246491082]}}, {"type": "Feature", "properties": {"norad_id": 38977, "name": "LUCH 5B (SDCM/PRN 125)", "group": "gnss", "lat": -5.826649022630972, "lon": 16.640631966804662, "alt_km": 35806.45255138148, "timestamp": "2025-12-13T20:38:51.245896+00:00", "meta": {"OBJECT_NAME": "LUCH 5B (SDCM/PRN 125)", "OBJECT_ID": "2012-061A", "EPOCH": "2025-12-12T23:40:28.445376", "MEAN_MOTION": 1.00272307, "ECCENTRICITY": 0.00070891, "INCLINATION": 10.0822, "RA_OF_ASC_NODE": 51.7049, "ARG_OF_PERICENTER": 193.3142, "MEAN_ANOMALY": 175.6845, "EPHEMERIS_TYPE": 0, "CLASSIFICATION_TYPE": "U", "NORAD_CAT_ID": 38977, "ELEMENT_SET_NO": 999, "REV_AT_EPOCH": 4774, "BSTAR": 0, "MEAN_MOTION_DOT": -1.3e-06, "MEAN_MOTION_DDOT": 0}, "tle": {"line1": "1 38977U 12061A   25346.98644034 -.00000130  00000+0  00000+0 0  9995", "line2": "2 38977  10.0822  51.7049 0007089 193.3142 175.6845  1.00272307 47742"}}, "geometry": {"type": "Point", "coordinates": [16.640631966804662, -5.826649022630972]}}, {"type": "Feature", "properties": {"norad_id": 39155, "name": "COSMOS 2485 (747)", "group": "gnss", "lat": -48.73648952026738, "lon": -68.60340618459978, "alt_km": 19073.205887187127, "timestamp": "2025-12-13T20:38:51.245910+00:00", "meta": {"OBJECT_NAME": "COSMOS 2485 (747)", "OBJECT_ID": "2013-019A", "EPOCH": "2025-12-11T16:13:03.281952", "MEAN_MOTION": 2.13102869, "ECCENTRICITY": 0.00245837, "INCLINATION": 65.313, "RA_OF_ASC_NODE": 79.9029, "ARG_OF_PERICENTER": 229.3313, "MEAN_ANOMALY": 130.4708, "EPHEMERIS_TYPE": 0, "CLASSIFICATION_TYPE": "U", "NORAD_CAT_ID": 39155, "ELEMENT_SET_NO": 999, "REV_AT_EPOCH": 9828, "BSTAR": 0, "MEAN_MOTION_DOT": -3.1e-07, "MEAN_MOTION_DDOT": 0}, "tle": {"line1": "1 39155U 13019A   25345.67573243 -.00000031  00000+0  00000+0 0  9996", "line2": "2 39155  65.3130  79.9029 0024583 229.3313 130.4708  2.13102869 98286"}}, "geometry": {"type": "Point", "coordinates": [-68.60340618459978, -48.73648952026738]}}, {"type": "Feature", "properties": {"norad_id": 39166, "name": "GPS BIIF-4  (PRN 27)", "group": "gnss", "lat": 50.2869015267372, "lon": 37.91968549725645, "alt_km": 19994.021265631018, "timestamp": "2025-12-13T20:38:51.245922+00:00", "meta": {"OBJECT_NAME": "GPS BIIF-4  (PRN 27)", "OBJECT_ID": "2013-023A", "EPOCH": "2025-12-12T05:11:52.937952", "MEAN_MOTION": 2.0056516, "ECCENTRICITY": 0.0137857, "INCLINATION": 54.6524, "RA_OF_ASC_NODE": 276.5895, "ARG_OF_PERICENTER": 48.604, "MEAN_ANOMALY": 312.5852, "EPHEMERIS_TYPE": 0, "CLASSIFICATION_TYPE": "U", "NORAD_CAT_ID": 39166, "ELEMENT_SET_NO": 999, "REV_AT_EPOCH": 9213, "BSTAR": 0, "MEAN_MOTION_DOT": -7.4e-07, "MEAN_MOTION_DDOT": 0}, "tle": {"line1": "1 39166U 13023A   25346.21658493 -.00000074  00000+0  00000+0 0  9992", "line2": "2 39166  54.6524 276.5895 0137857  48.6040 312.5852  2.00565160 92134"}}, "geometry": {"type": "Point", "coordinates": [37.91968549725645, 50.2869015267372]}}, {"type": "Feature", "properties": {"norad_id": 39199, "name": "IRNSS-1A", "group": "gnss", "lat": 12.155819476948109, "lon": 84.22231173483394, "alt_km": 35870.057850563455, "timestamp": "2025-12-13T20:38:51.245934+00:00", "meta": {"OBJECT_NAME": "IRNSS-1A", "OBJECT_ID": "2013-034A", "EPOCH": "2025-12-02T19:49:26.431104", "MEAN_MOTION": 1.00279053, "ECCENTRICITY": 0.00216608, "INCLINATION": 35.2852, "RA_OF_ASC_NODE": 66.6964, "ARG_OF_PERICENTER": 185.4059, "MEAN_ANOMALY": 172.3398, "EPHEMERIS_TYPE": 0, "CLASSIFICATION_TYPE": "U", "NORAD_CAT_ID": 39199, "ELEMENT_SET_NO": 999, "REV_AT_EPOCH": 4539, "BSTAR": 0, "MEAN_MOTION_DOT": 6.5e-07, "MEAN_MOTION_DDOT": 0}, "tle": {"line1": "1 39199U 13034A   25336.82600036  .00000065  00000+0  00000+0 0  9995", "line2": "2 39199  35.2852  66.6964 0021660 185.4059 172.3398  1.00279053 45393"}}, "geometry": {"type": "Point", "coordinates": [84.22231173483394, 12.155819476948109]}}, {"type": "Feature", "properties": {"norad_id": 39533, "name": "GPS BIIF-5  (PRN 30)", "group": "gnss", "lat": 49.2306474865684, "lon": -81.87476442665003, "alt_km": 20268.765053201736, "timestamp": "2025-12-13T20:38:51.245948+00:00", "meta": {"OBJECT_NAME": "GPS BIIF-5  (PRN 30)", "OBJECT_ID": "2014-008A", "EPOCH": "2025-12-12T17:01:11.546688", "MEAN_MOTION": 2.00574462, "ECCENTRICITY": 0.00792236, "INCLINATION": 53.6311, "RA_OF_ASC_NODE": 156.9259, "ARG_OF_PERICENTER": 226.5032, "MEAN_ANOMALY": 132.848, "EPHEMERIS_TYPE": 0, "CLASSIFICATION_TYPE": "U", "NORAD_CAT_ID": 39533, "ELEMENT_SET_NO": 999, "REV_AT_EPOCH": 8594, "BSTAR": 0, "MEAN_MOTION_DOT": 9.5e-07, "MEAN_MOTION_DDOT": 0}, "tle": {"line1": "1 39533U 14008A   25346.70916142  .00000095  00000+0  00000+0 0  9998", "line2": "2 39533  53.6311 156.9259 0079223 226.5032 132.8480  2.00574462 85946"}}, "geometry": {"type": "Point", "coordinates": [-81.87476442665003, 49.2306474865684]}}, {"type": "Feature", "properties": {"norad_id": 39617, "name": "ASTRA 5B (EGNOS/PRN 123)", "group": "gnss", "lat": 0.035585291506984675, "lon": 56.00590377382162, "alt_km": 35801.59912805016, "timestamp": "2025-12-13T20:38:51.245960+00:00", "meta": {"OBJECT_NAME": "ASTRA 5B (EGNOS/PRN 123)", "OBJECT_ID": "2014-011B", "EPOCH": "2025-12-13T04:59:57.842304", "MEAN_MOTION": 1.00272747, "ECCENTRICITY": 0.00043371, "INCLINATION": 0.0619, "RA_OF_ASC_NODE": 39.1771, "ARG_OF_PERICENTER": 227.0619, "MEAN_ANOMALY": 274.3823, "EPHEMERIS_TYPE": 0, "CLASSIFICATION_TYPE": "U", "NORAD_CAT_ID": 39617, "ELEMENT_SET_NO": 999, "REV_AT_EPOCH": 4280, "BSTAR": 0, "MEAN_MOTION_DOT": 1.51e-06, "MEAN_MOTION_DDOT": 0}, "tle": {"line1": "1 39617U 14011B   25347.20830836  .00000151  00000+0  00000+0 0  9999", "line2": "2 39617   0.0619  39.1771 0004337 227.0619 274.3823  1.00272747 42809"}}, "geometry": {"type": "Point", "coordinates": [56.00590377382162, 0.035585291506984675]}}]}